[
  {
    "OBJECT_NAME": "WORLDVIEW-1 (WV-1)",
    "OBJECT_ID": "2007-041A",
    "EPOCH": "2025-05-10T07:17:04.236864",
    "MEAN_MOTION": 15.24057762,
    "ECCENTRICITY": 0.0002031,
    "INCLINATION": 97.381,
    "RA_OF_ASC_NODE": 250.9716,
    "ARG_OF_PERICENTER": 217.6927,
    "MEAN_ANOMALY": 142.4168,
    "EPHEMERIS_TYPE": 0,
    "CLASSIFICATION_TYPE": "U",
    "NORAD_CAT_ID": 32060,
    "ELEMENT_SET_NO": 999,
    "REV_AT_EPOCH": 98155,
    "BSTAR": 0.00041418,
    "MEAN_MOTION_DOT": 9.984e-05,
    "MEAN_MOTION_DDOT": 0
  },
  {
    "OBJECT_NAME": "YAOGAN-3",
    "OBJECT_ID": "2007-055A",
    "EPOCH": "2025-05-10T20:37:15.837312",
    "MEAN_MOTION": 14.88648513,
    "ECCENTRICITY": 0.000136,
    "INCLINATION": 97.8547,
    "RA_OF_ASC_NODE": 159.3221,
    "ARG_OF_PERICENTER": 85.6332,
    "MEAN_ANOMALY": 274.504,
    "EPHEMERIS_TYPE": 0,
    "CLASSIFICATION_TYPE": "U",
    "NORAD_CAT_ID": 32289,
    "ELEMENT_SET_NO": 999,
    "REV_AT_EPOCH": 94602,
    "BSTAR": 0.00024506,
    "MEAN_MOTION_DOT": 2.23e-05,
    "MEAN_MOTION_DDOT": 0
  },
  {
    "OBJECT_NAME": "COSMO-SKYMED 2",
    "OBJECT_ID": "2007-059A",
    "EPOCH": "2025-05-10T20:46:52.330944",
    "MEAN_MOTION": 14.82154975,
    "ECCENTRICITY": 0.0001329,
    "INCLINATION": 97.8874,
    "RA_OF_ASC_NODE": 315.3064,
    "ARG_OF_PERICENTER": 89.261,
    "MEAN_ANOMALY": 270.8756,
    "EPHEMERIS_TYPE": 0,
    "CLASSIFICATION_TYPE": "U",
    "NORAD_CAT_ID": 32376,
    "ELEMENT_SET_NO": 999,
    "REV_AT_EPOCH": 94248,
    "BSTAR": 8.214e-05,
    "MEAN_MOTION_DOT": 6.02e-06,
    "MEAN_MOTION_DDOT": 0
  },
  {
    "OBJECT_NAME": "RADARSAT-2",
    "OBJECT_ID": "2007-061A",
    "EPOCH": "2025-05-10T20:17:13.380864",
    "MEAN_MOTION": 14.29980625,
    "ECCENTRICITY": 0.0001284,
    "INCLINATION": 98.5789,
    "RA_OF_ASC_NODE": 138.5166,
    "ARG_OF_PERICENTER": 90.1756,
    "MEAN_ANOMALY": 269.9573,
    "EPHEMERIS_TYPE": 0,
    "CLASSIFICATION_TYPE": "U",
    "NORAD_CAT_ID": 32382,
    "ELEMENT_SET_NO": 999,
    "REV_AT_EPOCH": 90856,
    "BSTAR": 5.3038e-05,
    "MEAN_MOTION_DOT": 9.3e-07,
    "MEAN_MOTION_DDOT": 0
  },
  {
    "OBJECT_NAME": "CARTOSAT-2A",
    "OBJECT_ID": "2008-021A",
    "EPOCH": "2025-05-10T19:39:51.411456",
    "MEAN_MOTION": 14.78703404,
    "ECCENTRICITY": 0.0010779,
    "INCLINATION": 97.8173,
    "RA_OF_ASC_NODE": 187.0387,
    "ARG_OF_PERICENTER": 345.5667,
    "MEAN_ANOMALY": 14.5235,
    "EPHEMERIS_TYPE": 0,
    "CLASSIFICATION_TYPE": "U",
    "NORAD_CAT_ID": 32783,
    "ELEMENT_SET_NO": 999,
    "REV_AT_EPOCH": 91942,
    "BSTAR": 0.00013394,
    "MEAN_MOTION_DOT": 9.33e-06,
    "MEAN_MOTION_DDOT": 0
  },
  {
    "OBJECT_NAME": "HUANJING 1A (HJ-1A)",
    "OBJECT_ID": "2008-041A",
    "EPOCH": "2025-05-10T21:53:55.400928",
    "MEAN_MOTION": 14.82605578,
    "ECCENTRICITY": 0.0020084,
    "INCLINATION": 97.6405,
    "RA_OF_ASC_NODE": 128.5241,
    "ARG_OF_PERICENTER": 23.6993,
    "MEAN_ANOMALY": 336.5142,
    "EPHEMERIS_TYPE": 0,
    "CLASSIFICATION_TYPE": "U",
    "NORAD_CAT_ID": 33320,
    "ELEMENT_SET_NO": 999,
    "REV_AT_EPOCH": 89887,
    "BSTAR": 0.00023559,
    "MEAN_MOTION_DOT": 1.852e-05,
    "MEAN_MOTION_DDOT": 0
  },
  {
    "OBJECT_NAME": "HUANJING 1B (HJ-1B)",
    "OBJECT_ID": "2008-041B",
    "EPOCH": "2025-05-10T20:47:00.388608",
    "MEAN_MOTION": 14.82176279,
    "ECCENTRICITY": 0.0038631,
    "INCLINATION": 97.6294,
    "RA_OF_ASC_NODE": 132.6675,
    "ARG_OF_PERICENTER": 64.5422,
    "MEAN_ANOMALY": 295.9781,
    "EPHEMERIS_TYPE": 0,
    "CLASSIFICATION_TYPE": "U",
    "NORAD_CAT_ID": 33321,
    "ELEMENT_SET_NO": 999,
    "REV_AT_EPOCH": 89888,
    "BSTAR": 0.00017615,
    "MEAN_MOTION_DOT": 1.37e-05,
    "MEAN_MOTION_DDOT": 0
  },
  {
    "OBJECT_NAME": "GEOEYE 1",
    "OBJECT_ID": "2008-042A",
    "EPOCH": "2025-05-10T14:00:19.101888",
    "MEAN_MOTION": 14.64637439,
    "ECCENTRICITY": 0.0003158,
    "INCLINATION": 98.1224,
    "RA_OF_ASC_NODE": 204.6323,
    "ARG_OF_PERICENTER": 231.3819,
    "MEAN_ANOMALY": 128.7101,
    "EPHEMERIS_TYPE": 0,
    "CLASSIFICATION_TYPE": "U",
    "NORAD_CAT_ID": 33331,
    "ELEMENT_SET_NO": 999,
    "REV_AT_EPOCH": 89121,
    "BSTAR": 0.00013653,
    "MEAN_MOTION_DOT": 6.78e-06,
    "MEAN_MOTION_DDOT": 0
  },
  {
    "OBJECT_NAME": "THEOS",
    "OBJECT_ID": "2008-049A",
    "EPOCH": "2025-05-10T20:49:06.965472",
    "MEAN_MOTION": 14.20101813,
    "ECCENTRICITY": 0.0001109,
    "INCLINATION": 98.6109,
    "RA_OF_ASC_NODE": 194.9543,
    "ARG_OF_PERICENTER": 87.8168,
    "MEAN_ANOMALY": 272.3136,
    "EPHEMERIS_TYPE": 0,
    "CLASSIFICATION_TYPE": "U",
    "NORAD_CAT_ID": 33396,
    "ELEMENT_SET_NO": 999,
    "REV_AT_EPOCH": 86088,
    "BSTAR": 6.2532e-05,
    "MEAN_MOTION_DOT": 9e-07,
    "MEAN_MOTION_DDOT": 0
  },
  {
    "OBJECT_NAME": "COSMO-SKYMED 3",
    "OBJECT_ID": "2008-054A",
    "EPOCH": "2025-05-10T19:04:08.466816",
    "MEAN_MOTION": 15.0322451,
    "ECCENTRICITY": 0.0016944,
    "INCLINATION": 97.8713,
    "RA_OF_ASC_NODE": 337.617,
    "ARG_OF_PERICENTER": 183.3314,
    "MEAN_ANOMALY": 176.7801,
    "EPHEMERIS_TYPE": 0,
    "CLASSIFICATION_TYPE": "U",
    "NORAD_CAT_ID": 33412,
    "ELEMENT_SET_NO": 999,
    "REV_AT_EPOCH": 89641,
    "BSTAR": 0.00036862,
    "MEAN_MOTION_DOT": 4.941e-05,
    "MEAN_MOTION_DDOT": 0
  },
  {
    "OBJECT_NAME": "YAOGAN-4",
    "OBJECT_ID": "2008-061A",
    "EPOCH": "2025-05-10T12:26:48.357600",
    "MEAN_MOTION": 14.81975055,
    "ECCENTRICITY": 0.001346,
    "INCLINATION": 97.9043,
    "RA_OF_ASC_NODE": 63.1534,
    "ARG_OF_PERICENTER": 306.0818,
    "MEAN_ANOMALY": 53.9147,
    "EPHEMERIS_TYPE": 0,
    "CLASSIFICATION_TYPE": "U",
    "NORAD_CAT_ID": 33446,
    "ELEMENT_SET_NO": 999,
    "REV_AT_EPOCH": 88600,
    "BSTAR": 0.00018674,
    "MEAN_MOTION_DOT": 1.429e-05,
    "MEAN_MOTION_DDOT": 0
  },
  {
    "OBJECT_NAME": "GOSAT (IBUKI)",
    "OBJECT_ID": "2009-002A",
    "EPOCH": "2025-05-10T14:13:40.554336",
    "MEAN_MOTION": 14.67555265,
    "ECCENTRICITY": 8.84e-05,
    "INCLINATION": 98.0589,
    "RA_OF_ASC_NODE": 242.4253,
    "ARG_OF_PERICENTER": 115.8359,
    "MEAN_ANOMALY": 244.2937,
    "EPHEMERIS_TYPE": 0,
    "CLASSIFICATION_TYPE": "U",
    "NORAD_CAT_ID": 33492,
    "ELEMENT_SET_NO": 999,
    "REV_AT_EPOCH": 87241,
    "BSTAR": 4.5993e-05,
    "MEAN_MOTION_DOT": 2.13e-06,
    "MEAN_MOTION_DDOT": 0
  },
  {
    "OBJECT_NAME": "YAOGAN-6",
    "OBJECT_ID": "2009-021A",
    "EPOCH": "2025-05-10T21:27:12.888288",
    "MEAN_MOTION": 15.96327105,
    "ECCENTRICITY": 0.0007039,
    "INCLINATION": 97.1948,
    "RA_OF_ASC_NODE": 110.5641,
    "ARG_OF_PERICENTER": 79.6117,
    "MEAN_ANOMALY": 280.5953,
    "EPHEMERIS_TYPE": 0,
    "CLASSIFICATION_TYPE": "U",
    "NORAD_CAT_ID": 34839,
    "ELEMENT_SET_NO": 999,
    "REV_AT_EPOCH": 89468,
    "BSTAR": 0.00047216,
    "MEAN_MOTION_DOT": 0.00195103,
    "MEAN_MOTION_DDOT": 1.6915e-05
  },
  {
    "OBJECT_NAME": "DEIMOS-1",
    "OBJECT_ID": "2009-041A",
    "EPOCH": "2025-05-10T21:09:24.433056",
    "MEAN_MOTION": 14.7455674,
    "ECCENTRICITY": 0.0002611,
    "INCLINATION": 97.6985,
    "RA_OF_ASC_NODE": 301.8538,
    "ARG_OF_PERICENTER": 72.9269,
    "MEAN_ANOMALY": 287.2226,
    "EPHEMERIS_TYPE": 0,
    "CLASSIFICATION_TYPE": "U",
    "NORAD_CAT_ID": 35681,
    "ELEMENT_SET_NO": 999,
    "REV_AT_EPOCH": 84758,
    "BSTAR": 0.00011304,
    "MEAN_MOTION_DOT": 7.06e-06,
    "MEAN_MOTION_DDOT": 0
  },
  {
    "OBJECT_NAME": "DUBAISAT-1",
    "OBJECT_ID": "2009-041B",
    "EPOCH": "2025-05-10T14:42:46.827936",
    "MEAN_MOTION": 14.73895276,
    "ECCENTRICITY": 0.0009411,
    "INCLINATION": 97.9504,
    "RA_OF_ASC_NODE": 265.0104,
    "ARG_OF_PERICENTER": 284.7738,
    "MEAN_ANOMALY": 75.2428,
    "EPHEMERIS_TYPE": 0,
    "CLASSIFICATION_TYPE": "U",
    "NORAD_CAT_ID": 35682,
    "ELEMENT_SET_NO": 999,
    "REV_AT_EPOCH": 84583,
    "BSTAR": 0.00022438,
    "MEAN_MOTION_DOT": 1.422e-05,
    "MEAN_MOTION_DDOT": 0
  },
  {
    "OBJECT_NAME": "OCEANSAT-2",
    "OBJECT_ID": "2009-051A",
    "EPOCH": "2025-05-10T20:46:39.275904",
    "MEAN_MOTION": 13.99592308,
    "ECCENTRICITY": 0.0015495,
    "INCLINATION": 98.2264,
    "RA_OF_ASC_NODE": 153.2777,
    "ARG_OF_PERICENTER": 294.7647,
    "MEAN_ANOMALY": 65.1907,
    "EPHEMERIS_TYPE": 0,
    "CLASSIFICATION_TYPE": "U",
    "NORAD_CAT_ID": 35931,
    "ELEMENT_SET_NO": 999,
    "REV_AT_EPOCH": 82305,
    "BSTAR": -2.0056e-05,
    "MEAN_MOTION_DOT": -6.7e-07,
    "MEAN_MOTION_DDOT": 0
  },
  {
    "OBJECT_NAME": "WORLDVIEW-2 (WV-2)",
    "OBJECT_ID": "2009-055A",
    "EPOCH": "2025-05-10T12:39:58.383648",
    "MEAN_MOTION": 14.37186747,
    "ECCENTRICITY": 0.0003913,
    "INCLINATION": 98.4793,
    "RA_OF_ASC_NODE": 204.6541,
    "ARG_OF_PERICENTER": 5.5536,
    "MEAN_ANOMALY": 354.5693,
    "EPHEMERIS_TYPE": 0,
    "CLASSIFICATION_TYPE": "U",
    "NORAD_CAT_ID": 35946,
    "ELEMENT_SET_NO": 999,
    "REV_AT_EPOCH": 81789,
    "BSTAR": 6.7731e-05,
    "MEAN_MOTION_DOT": 1.58e-06,
    "MEAN_MOTION_DDOT": 0
  },
  {
    "OBJECT_NAME": "SMOS",
    "OBJECT_ID": "2009-059A",
    "EPOCH": "2025-05-10T11:00:54.150048",
    "MEAN_MOTION": 14.39758759,
    "ECCENTRICITY": 0.0001337,
    "INCLINATION": 98.4431,
    "RA_OF_ASC_NODE": 318.6544,
    "ARG_OF_PERICENTER": 87.2182,
    "MEAN_ANOMALY": 272.9159,
    "EPHEMERIS_TYPE": 0,
    "CLASSIFICATION_TYPE": "U",
    "NORAD_CAT_ID": 36036,
    "ELEMENT_SET_NO": 999,
    "REV_AT_EPOCH": 81550,
    "BSTAR": 0.00012969,
    "MEAN_MOTION_DOT": 3.63e-06,
    "MEAN_MOTION_DDOT": 0
  },
  {
    "OBJECT_NAME": "YAOGAN-7",
    "OBJECT_ID": "2009-069A",
    "EPOCH": "2025-05-10T15:57:07.874208",
    "MEAN_MOTION": 14.77385377,
    "ECCENTRICITY": 0.0023477,
    "INCLINATION": 98.0599,
    "RA_OF_ASC_NODE": 12.9201,
    "ARG_OF_PERICENTER": 255.4867,
    "MEAN_ANOMALY": 104.3738,
    "EPHEMERIS_TYPE": 0,
    "CLASSIFICATION_TYPE": "U",
    "NORAD_CAT_ID": 36110,
    "ELEMENT_SET_NO": 999,
    "REV_AT_EPOCH": 83022,
    "BSTAR": 9.5727e-05,
    "MEAN_MOTION_DOT": 6.3e-06,
    "MEAN_MOTION_DDOT": 0
  }
]